ONEWEB-0328             
1 49197U 21083M   25294.93789163 -.00000114  00000+0 -34652-3 0  9992
2 49197  87.9043   7.5465 0001945  97.8209 262.3141 13.13472340199628
ONEWEB-0331             
1 49198U 21083N   25294.74336108 -.00000034  00000+0 -11873-3 0  9990
2 49198  87.9232  22.7994 0001705  89.7933 270.3395 13.18684920198581
ONEWEB-0333             
1 49199U 21083P   25294.93282379 -.00000308  00000+0 -87900-3 0  9990
2 49199  87.9027   7.6094 0001722 103.5420 256.5901 13.13471196199632
ONEWEB-0334             
1 49200U 21083Q   25294.58440765  .00000027  00000+0  35288-4 0  9998
2 49200  87.9200 322.0499 0002159 122.7607 237.3735 13.20770067205295
ONEWEB-0335             
1 49201U 21083R   25294.92774189 -.00000337  00000+0 -95717-3 0  9995
2 49201  87.9029   7.5982 0001700  94.8575 265.2749 13.13470968199646
ONEWEB-0336             
1 49202U 21083S   25294.89897298  .00000293  00000+0  76849-3 0  9993
2 49202  87.9031   7.5982 0001778  82.7283 277.4048 13.13470082199630
ONEWEB-0337             
1 49203U 21083T   25294.68045675 -.00000085  00000+0 -26805-3 0  9993
2 49203  87.9047   7.6505 0001931  94.6093 265.5257 13.13469887199600
ONEWEB-0338             
1 49204U 21083U   25294.86218664  .00000085  00000+0  17599-3 0  9992
2 49204  87.9205 321.9956 0001962 103.9501 256.1851 13.20772287205356
ONEWEB-0339             
1 49205U 21083V   25294.91758166 -.00000109  00000+0 -33396-3 0  9997
2 49205  87.9037   7.5858 0001964 101.9354 258.1996 13.13468327199616
ONEWEB-0340             
1 49206U 21083W   25294.80604646  .00000090  00000+0  19670-3 0  9995
2 49206  87.9230  22.7918 0001756  98.3996 261.7335 13.18685869198554
ONEWEB-0341             
1 49207U 21083X   25294.81264087  .00000139  00000+0  31956-3 0  9993
2 49207  87.9231  22.8023 0002245  93.2980 266.8409 13.18685422198570
ONEWEB-0342             
1 49208U 21083Y   25294.64122541  .00000126  00000+0  27749-3 0  9994
2 49208  87.9203 322.0078 0001929  98.0414 262.0938 13.20770055205291
ONEWEB-0343             
1 49209U 21083Z   25294.74495022  .00000015  00000+0  42507-5 0  9991
2 49209  87.9233  22.8071 0002362 102.7028 257.4369 13.18683522198611
ONEWEB-0344             
1 49210U 21083AA  25294.91250468 -.00000065  00000+0 -21155-3 0  9996
2 49210  87.9031   7.6230 0002149  92.1214 268.0162 13.13467770199619
ONEWEB-0345             
1 49211U 21083AB  25294.75169197  .00000060  00000+0  12899-3 0  9995
2 49211  87.9040   7.6106 0002178  94.6010 265.5368 13.13470495199602
ONEWEB-0346             
1 49212U 21083AC  25294.74170973 -.00000037  00000+0 -12550-3 0  9999
2 49212  87.9234  22.8245 0001386  84.6928 275.4363 13.18685398198551
ONEWEB-0348             
1 49213U 21083AD  25294.85902556  .00000046  00000+0  82132-4 0  9994
2 49213  87.9200 321.9753 0002024  77.0482 283.0877 13.20771478205353
ONEWEB-0350             
1 49214U 21083AE  25294.91335054 -.00000072  00000+0 -23103-3 0  9998
2 49214  87.9050   7.5748 0002013  92.3382 267.7978 13.13468177199652
ONEWEB-0351             
1 49215U 21083AF  25294.92831633 -.00000180  00000+0 -47394-3 0  9992
2 49215  87.9209 321.9526 0002563 108.9851 251.1560 13.20770229205329
ONEWEB-0352             
1 49216U 21083AG  25294.74152731  .00000271  00000+0  70677-3 0  9997
2 49216  87.9030   7.6376 0002150 109.7877 250.3484 13.13471205199728
ONEWEB-0354             
1 49217U 21083AH  25294.57493887  .00000076  00000+0  15464-3 0  9995
2 49217  87.9212 322.0218 0002017  86.9037 273.2327 13.20770912205314
ONEWEB-0355             
1 49218U 21083AJ  25294.92279657 -.00000302  00000+0 -86094-3 0  9993
2 49218  87.9039   7.6120 0002050 100.1383 259.9978 13.13468286199629
ONEWEB-0357             
1 49219U 21083AK  25294.64753767  .00000072  00000+0  14596-3 0  9992
2 49219  87.9207 322.0049 0002056  95.3795 264.7573 13.20769895205327
ONEWEB-0332             
1 49279U 21090A   25294.66550239  .00000188  00000+0  47271-3 0  9991
2 49279  87.9017 337.2369 0001867 104.3315 255.8022 13.14501705196240
ONEWEB-0347             
1 49280U 21090B   25294.56230418  .00000062  00000+0  12151-3 0  9996
2 49280  87.9204 322.0352 0001620 103.3731 256.7583 13.20770396199541
ONEWEB-0349             
1 49281U 21090C   25294.59386765  .00000051  00000+0  93561-4 0  9990
2 49281  87.9203 322.0284 0001955  95.8043 264.3313 13.20769796198331
ONEWEB-0353             
1 49282U 21090D   25294.88592161  .00000290  00000+0  74816-3 0  9998
2 49282  87.9019 337.1754 0001785 104.7768 255.3560 13.14503024196279
ONEWEB-0356             
1 49283U 21090E   25294.59229766  .00000041  00000+0  67869-4 0  9990
2 49283  87.9201 322.0199 0001063  76.4596 283.6656 13.20769968198339
ONEWEB-0358             
1 49284U 21090F   25294.92531608  .00000025  00000+0  30037-4 0  9998
2 49284  87.9212 321.9510 0001798  90.6731 269.4608 13.20771346199109
ONEWEB-0359             
1 49285U 21090G   25294.92215363  .00000982  00000+0  23817-2 0  9994
2 49285  87.9202 321.9553 0002077  85.1952 274.9419 13.20778197199080
ONEWEB-0360             
1 49286U 21090H   25294.60964486 -.00000054  00000+0 -16489-3 0  9997
2 49286  87.9203 322.0268 0002074  92.3204 267.8167 13.20776114198351
ONEWEB-0361             
1 49287U 21090J   25294.59072329  .00000069  00000+0  13872-3 0  9999
2 49287  87.9200 322.0259 0001725  91.8105 268.3226 13.20770491198809
ONEWEB-0362             
1 49288U 21090K   25294.88505120  .00000108  00000+0  23653-3 0  9994
2 49288  87.9247 352.3992 0002116 101.1746 258.9625 13.19724016195481
ONEWEB-0363             
1 49289U 21090L   25294.60648337  .00000039  00000+0  64203-4 0  9993
2 49289  87.9203 322.0192 0001592  86.7580 273.3736 13.20773322198811
ONEWEB-0364             
1 49290U 21090M   25294.64436270 -.00001632  00000+0 -40449-2 0  9996
2 49290  87.9196 322.0372 0001543  95.7054 264.4255 13.20780281199951
ONEWEB-0365             
1 49291U 21090N   25294.89453062  .00000037  00000+0  59156-4 0  9995
2 49291  87.9262 352.3547 0001925 101.4164 258.7186 13.19723878194992
ONEWEB-0366             
1 49292U 21090P   25294.65440455  .00000177  00000+0  44417-3 0  9990
2 49292  87.9026 337.2394 0001808  95.3161 264.8175 13.14502410196227
ONEWEB-0367             
1 49293U 21090Q   25294.60492926  .00000020  00000+0  16253-4 0  9991
2 49293  87.9207 322.0161 0002039  97.8189 262.3176 13.20770995198337
ONEWEB-0368             
1 49294U 21090R   25294.57809743  .00000091  00000+0  19150-3 0  9993
2 49294  87.9201 322.0558 0001242 114.0303 246.0960 13.20770521199489
ONEWEB-0369             
1 49295U 21090S   25294.88978576  .00000131  00000+0  29446-3 0  9993
2 49295  87.9254 352.3865 0001886 101.5829 258.5515 13.19724374194980
ONEWEB-0370             
1 49296U 21090T   25294.91742752  .00000023  00000+0  25120-4 0  9999
2 49296  87.9205 321.9620 0002188  91.1724 268.9660 13.20771205198417
ONEWEB-0371             
1 49297U 21090U   25294.67023868  .00000035  00000+0  54974-4 0  9995
2 49297  87.9256 352.4173 0001968  99.6037 260.5318 13.19724072194996
ONEWEB-0372             
1 49298U 21090V   25294.60320696  .00000041  00000+0  67855-4 0  9997
2 49298  87.9202 322.0261 0001864  98.0373 262.0971 13.20769750198349
ONEWEB-0373             
1 49299U 21090W   25294.85744029  .00000108  00000+0  23375-3 0  9997
2 49299  87.9201 321.9890 0001872  91.2820 268.8528 13.20770129199565
ONEWEB-0374             
1 49300U 21090X   25294.64170164  .00000320  00000+0  82932-3 0  9990
2 49300  87.9025 337.2173 0001274  93.0834 267.0442 13.14505151196227
ONEWEB-0375             
1 49301U 21090Y   25294.92057270  .00000060  00000+0  11676-3 0  9992
2 49301  87.9201 321.9563 0001574  76.9442 283.1867 13.20770204199071
ONEWEB-0376             
1 49302U 21090Z   25294.89610769  .00000031  00000+0  46334-4 0  9995
2 49302  87.9260 352.3569 0001949 106.0914 254.0434 13.19724483195020
ONEWEB-0377             
1 49303U 21090AA  25294.60348714  .00000010  00000+0 -74760-5 0  9996
2 49303  87.9208 322.0164 0001993  89.2363 270.8998 13.20770556199026
ONEWEB-0378             
1 49304U 21090AB  25294.92860790  .00000030  00000+0  42728-4 0  9994
2 49304  87.9209 321.9668 0001739  91.5261 268.6072 13.20771545198336
ONEWEB-0379             
1 49305U 21090AC  25294.63694198  .00000200  00000+0  50606-3 0  9992
2 49305  87.9025 337.2266 0001738  99.3141 260.8186 13.14504340196225
ONEWEB-0380             
1 49306U 21090AD  25294.89295047  .00000079  00000+0  16411-3 0  9991
2 49306  87.9254 352.3830 0001827  92.4354 267.6988 13.19723675194990
ONEWEB-0381             
1 49307U 21090AE  25294.60019424 -.00000013  00000+0 -63303-4 0  9997
2 49307  87.9201 322.0234 0001734  87.1226 273.0106 13.20770550198332
ONEWEB-0382             
1 49308U 21090AF  25294.58756152  .00000018  00000+0  11895-4 0  9993
2 49308  87.9208 322.0178 0001594  90.3469 269.7847 13.20769942198322
ONEWEB-0383             
1 49309U 21090AG  25294.55450096  .00000057  00000+0  11859-3 0  9991
2 49309  87.9031 337.2258 0001658  98.6882 261.4436 13.14503205196248
ONEWEB-0384             
1 49310U 21090AH  25294.58199019  .00000094  00000+0  19852-3 0  9993
2 49310  87.9219 322.0499 0001304  90.6724 269.4558 13.20795488198330
ONEWEB-0385             
1 49311U 21090AJ  25294.57967876  .00000072  00000+0  14397-3 0  9992
2 49311  87.9199 322.0292 0001717  92.2252 267.9078 13.20771345198304
ONEWEB-0386             
1 49312U 21090AK  25294.59703250 -.00000002  00000+0 -37407-4 0  9992
2 49312  87.9211 322.0050 0001593  92.3331 267.7985 13.20770278198324
ONEWEB-0387             
1 49313U 21090AL  25294.58124284  .00000116  00000+0  25327-3 0  9997
2 49313  87.9200 322.0582 0001855  84.4337 275.7008 13.20769548198325
ONEWEB-0388             
1 49314U 21090AM  25294.88821033  .00000071  00000+0  14530-3 0  9991
2 49314  87.9246 352.3890 0001745  97.5116 262.6215 13.19723977194989
